CCSDS_OMM_VERS = 2.0
CREATION_DATE  = 
ORIGINATOR     = 

OBJECT_NAME    = STARLINK-36718
OBJECT_ID      = 2026-025Y
CENTER_NAME    = EARTH
REF_FRAME      = TEME
TIME_SYSTEM    = UTC
MEAN_ELEMENT_THEORY = SGP/SGP4

EPOCH          = 2026-02-22T06:00:01.999296
MEAN_MOTION    = 15.86876612
ECCENTRICITY   = .0001398
INCLINATION    = 97.2691
RA_OF_ASC_NODE = 164.1100
ARG_OF_PERICENTER = 68.3207
MEAN_ANOMALY   = 250.7414

EPHEMERIS_TYPE = 0
CLASSIFICATION_TYPE = U
NORAD_CAT_ID   = 67715
ELEMENT_SET_NO = 999
REV_AT_EPOCH   = 337
BSTAR          = -.66492E-2
MEAN_MOTION_DOT = -.1471409E-1
MEAN_MOTION_DDOT = 0

CCSDS_OMM_VERS = 2.0
CREATION_DATE  = 
ORIGINATOR     = 

OBJECT_NAME    = STARLINK-36715
OBJECT_ID      = 2026-025Z
CENTER_NAME    = EARTH
REF_FRAME      = TEME
TIME_SYSTEM    = UTC
MEAN_ELEMENT_THEORY = SGP/SGP4

EPOCH          = 2026-02-22T06:00:01.999296
MEAN_MOTION    = 15.86540926
ECCENTRICITY   = .0001514
INCLINATION    = 97.2687
RA_OF_ASC_NODE = 164.1053
ARG_OF_PERICENTER = 65.8795
MEAN_ANOMALY   = 243.4595

EPHEMERIS_TYPE = 0
CLASSIFICATION_TYPE = U
NORAD_CAT_ID   = 67716
ELEMENT_SET_NO = 999
REV_AT_EPOCH   = 343
BSTAR          = -.67446E-2
MEAN_MOTION_DOT = -.146859E-1
MEAN_MOTION_DDOT = 0

CCSDS_OMM_VERS = 2.0
CREATION_DATE  = 
ORIGINATOR     = 

OBJECT_NAME    = STARLINK-36385
OBJECT_ID      = 2026-025AA
CENTER_NAME    = EARTH
REF_FRAME      = TEME
TIME_SYSTEM    = UTC
MEAN_ELEMENT_THEORY = SGP/SGP4

EPOCH          = 2026-02-22T06:00:01.999296
MEAN_MOTION    = 15.85541488
ECCENTRICITY   = .0001645
INCLINATION    = 97.2694
RA_OF_ASC_NODE = 164.0924
ARG_OF_PERICENTER = 62.9243
MEAN_ANOMALY   = 216.2726

EPHEMERIS_TYPE = 0
CLASSIFICATION_TYPE = U
NORAD_CAT_ID   = 67717
ELEMENT_SET_NO = 999
REV_AT_EPOCH   = 343
BSTAR          = -.72092E-2
MEAN_MOTION_DOT = -.152259E-1
MEAN_MOTION_DDOT = 0

CCSDS_OMM_VERS = 2.0
CREATION_DATE  = 
ORIGINATOR     = 

OBJECT_NAME    = CZ-2F DEB
OBJECT_ID      = 2026-024E
CENTER_NAME    = EARTH
REF_FRAME      = TEME
TIME_SYSTEM    = UTC
MEAN_ELEMENT_THEORY = SGP/SGP4

EPOCH          = 2026-02-22T04:21:38.485152
MEAN_MOTION    = 15.18667409
ECCENTRICITY   = .0253944
INCLINATION    = 50.3140
RA_OF_ASC_NODE = 94.5464
ARG_OF_PERICENTER = 219.0131
MEAN_ANOMALY   = 139.2266

EPHEMERIS_TYPE = 0
CLASSIFICATION_TYPE = U
NORAD_CAT_ID   = 67718
ELEMENT_SET_NO = 999
REV_AT_EPOCH   = 227
BSTAR          = .39112E-2
MEAN_MOTION_DOT = .201157E-2
MEAN_MOTION_DDOT = 0

CCSDS_OMM_VERS = 2.0
CREATION_DATE  = 
ORIGINATOR     = 

OBJECT_NAME    = CZ-2F DEB
OBJECT_ID      = 2026-024F
CENTER_NAME    = EARTH
REF_FRAME      = TEME
TIME_SYSTEM    = UTC
MEAN_ELEMENT_THEORY = SGP/SGP4

EPOCH          = 2026-02-22T05:44:01.036032
MEAN_MOTION    = 14.98781799
ECCENTRICITY   = .0328213
INCLINATION    = 49.7901
RA_OF_ASC_NODE = 96.0143
ARG_OF_PERICENTER = 209.5476
MEAN_ANOMALY   = 148.6562

EPHEMERIS_TYPE = 0
CLASSIFICATION_TYPE = U
NORAD_CAT_ID   = 67719
ELEMENT_SET_NO = 999
REV_AT_EPOCH   = 192
BSTAR          = .42368E-2
MEAN_MOTION_DOT = .168272E-2
MEAN_MOTION_DDOT = 0

CCSDS_OMM_VERS = 2.0
CREATION_DATE  = 
ORIGINATOR     = 

OBJECT_NAME    = CZ-2F DEB
OBJECT_ID      = 2026-024G
CENTER_NAME    = EARTH
REF_FRAME      = TEME
TIME_SYSTEM    = UTC
MEAN_ELEMENT_THEORY = SGP/SGP4

EPOCH          = 2026-02-22T06:22:44.402880
MEAN_MOTION    = 14.96133764
ECCENTRICITY   = .0338847
INCLINATION    = 49.8299
RA_OF_ASC_NODE = 96.1953
ARG_OF_PERICENTER = 206.1103
MEAN_ANOMALY   = 152.2402

EPHEMERIS_TYPE = 0
CLASSIFICATION_TYPE = U
NORAD_CAT_ID   = 67720
ELEMENT_SET_NO = 999
REV_AT_EPOCH   = 224
BSTAR          = .43846E-2
MEAN_MOTION_DOT = .169685E-2
MEAN_MOTION_DDOT = 0

CCSDS_OMM_VERS = 2.0
CREATION_DATE  = 
ORIGINATOR     = 

OBJECT_NAME    = STARLINK-36772
OBJECT_ID      = 2026-026A
CENTER_NAME    = EARTH
REF_FRAME      = TEME
TIME_SYSTEM    = UTC
MEAN_ELEMENT_THEORY = SGP/SGP4

EPOCH          = 2026-02-11T18:04:34.000320
MEAN_MOTION    = 16.07750770
ECCENTRICITY   = .00034
INCLINATION    = 97.2800
RA_OF_ASC_NODE = 95.5280
ARG_OF_PERICENTER = 259.0800
MEAN_ANOMALY   = 81.2200

EPHEMERIS_TYPE = 0
CLASSIFICATION_TYPE = U
NORAD_CAT_ID   = 67721
ELEMENT_SET_NO = 999
REV_AT_EPOCH   = 1
BSTAR          = 0
MEAN_MOTION_DOT = -.725E-5
MEAN_MOTION_DDOT = .2293429E-5

CCSDS_OMM_VERS = 2.0
CREATION_DATE  = 
ORIGINATOR     = 

OBJECT_NAME    = STARLINK-36796
OBJECT_ID      = 2026-026B
CENTER_NAME    = EARTH
REF_FRAME      = TEME
TIME_SYSTEM    = UTC
MEAN_ELEMENT_THEORY = SGP/SGP4

EPOCH          = 2026-02-22T05:52:36.496704
MEAN_MOTION    = 15.88485316
ECCENTRICITY   = .0001066
INCLINATION    = 97.2742
RA_OF_ASC_NODE = 107.0696
ARG_OF_PERICENTER = 111.6944
MEAN_ANOMALY   = 248.4442

EPHEMERIS_TYPE = 0
CLASSIFICATION_TYPE = U
NORAD_CAT_ID   = 67722
ELEMENT_SET_NO = 999
REV_AT_EPOCH   = 169
BSTAR          = -.23942E-2
MEAN_MOTION_DOT = -.617181E-2
MEAN_MOTION_DDOT = 0

CCSDS_OMM_VERS = 2.0
CREATION_DATE  = 
ORIGINATOR     = 

OBJECT_NAME    = STARLINK-36369
OBJECT_ID      = 2026-026C
CENTER_NAME    = EARTH
REF_FRAME      = TEME
TIME_SYSTEM    = UTC
MEAN_ELEMENT_THEORY = SGP/SGP4

EPOCH          = 2026-02-22T05:51:28.962144
MEAN_MOTION    = 15.88684101
ECCENTRICITY   = .0000917
INCLINATION    = 97.2744
RA_OF_ASC_NODE = 107.0709
ARG_OF_PERICENTER = 81.3046
MEAN_ANOMALY   = 278.8330

EPHEMERIS_TYPE = 0
CLASSIFICATION_TYPE = U
NORAD_CAT_ID   = 67723
ELEMENT_SET_NO = 999
REV_AT_EPOCH   = 169
BSTAR          = -.23062E-2
MEAN_MOTION_DOT = -.601432E-2
MEAN_MOTION_DDOT = 0

CCSDS_OMM_VERS = 2.0
CREATION_DATE  = 
ORIGINATOR     = 

OBJECT_NAME    = STARLINK-36752
OBJECT_ID      = 2026-026D
CENTER_NAME    = EARTH
REF_FRAME      = TEME
TIME_SYSTEM    = UTC
MEAN_ELEMENT_THEORY = SGP/SGP4

EPOCH          = 2026-02-22T05:50:01.711104
MEAN_MOTION    = 15.88929836
ECCENTRICITY   = .0001007
INCLINATION    = 97.2742
RA_OF_ASC_NODE = 107.0734
ARG_OF_PERICENTER = 113.3530
MEAN_ANOMALY   = 246.7849

EPHEMERIS_TYPE = 0
CLASSIFICATION_TYPE = U
NORAD_CAT_ID   = 67724
ELEMENT_SET_NO = 999
REV_AT_EPOCH   = 169
BSTAR          = -.22296E-2
MEAN_MOTION_DOT = -.589441E-2
MEAN_MOTION_DDOT = 0

CCSDS_OMM_VERS = 2.0
CREATION_DATE  = 
ORIGINATOR     = 

OBJECT_NAME    = STARLINK-36754
OBJECT_ID      = 2026-026E
CENTER_NAME    = EARTH
REF_FRAME      = TEME
TIME_SYSTEM    = UTC
MEAN_ELEMENT_THEORY = SGP/SGP4

EPOCH          = 2026-02-22T05:48:53.069760
MEAN_MOTION    = 15.89129541
ECCENTRICITY   = .0001467
INCLINATION    = 97.2740
RA_OF_ASC_NODE = 107.0737
ARG_OF_PERICENTER = 119.4560
MEAN_ANOMALY   = 240.6859

EPHEMERIS_TYPE = 0
CLASSIFICATION_TYPE = U
NORAD_CAT_ID   = 67725
ELEMENT_SET_NO = 999
REV_AT_EPOCH   = 169
BSTAR          = -.22534E-2
MEAN_MOTION_DOT = -.601061E-2
MEAN_MOTION_DDOT = 0

CCSDS_OMM_VERS = 2.0
CREATION_DATE  = 
ORIGINATOR     = 

OBJECT_NAME    = STARLINK-36755
OBJECT_ID      = 2026-026F
CENTER_NAME    = EARTH
REF_FRAME      = TEME
TIME_SYSTEM    = UTC
MEAN_ELEMENT_THEORY = SGP/SGP4

EPOCH          = 2026-02-22T05:47:27.290112
MEAN_MOTION    = 15.89365353
ECCENTRICITY   = .0000729
INCLINATION    = 97.2742
RA_OF_ASC_NODE = 107.0744
ARG_OF_PERICENTER = 91.1866
MEAN_ANOMALY   = 268.9490

EPHEMERIS_TYPE = 0
CLASSIFICATION_TYPE = U
NORAD_CAT_ID   = 67726
ELEMENT_SET_NO = 999
REV_AT_EPOCH   = 169
BSTAR          = -.21822E-2
MEAN_MOTION_DOT = -.589578E-2
MEAN_MOTION_DDOT = 0

CCSDS_OMM_VERS = 2.0
CREATION_DATE  = 
ORIGINATOR     = 

OBJECT_NAME    = STARLINK-36741
OBJECT_ID      = 2026-026G
CENTER_NAME    = EARTH
REF_FRAME      = TEME
TIME_SYSTEM    = UTC
MEAN_ELEMENT_THEORY = SGP/SGP4

EPOCH          = 2026-02-22T05:46:31.602720
MEAN_MOTION    = 15.89520066
ECCENTRICITY   = .0000747
INCLINATION    = 97.2737
RA_OF_ASC_NODE = 107.0746
ARG_OF_PERICENTER = 82.0065
MEAN_ANOMALY   = 278.1293

EPHEMERIS_TYPE = 0
CLASSIFICATION_TYPE = U
NORAD_CAT_ID   = 67727
ELEMENT_SET_NO = 999
REV_AT_EPOCH   = 169
BSTAR          = -.21863E-2
MEAN_MOTION_DOT = -.634461E-2
MEAN_MOTION_DDOT = .12548E-3

CCSDS_OMM_VERS = 2.0
CREATION_DATE  = 
ORIGINATOR     = 

OBJECT_NAME    = STARLINK-36757
OBJECT_ID      = 2026-026H
CENTER_NAME    = EARTH
REF_FRAME      = TEME
TIME_SYSTEM    = UTC
MEAN_ELEMENT_THEORY = SGP/SGP4

EPOCH          = 2026-02-22T05:45:15.021216
MEAN_MOTION    = 15.89741644
ECCENTRICITY   = .0000683
INCLINATION    = 97.2732
RA_OF_ASC_NODE = 107.0753
ARG_OF_PERICENTER = 79.4086
MEAN_ANOMALY   = 280.7263

EPHEMERIS_TYPE = 0
CLASSIFICATION_TYPE = U
NORAD_CAT_ID   = 67728
ELEMENT_SET_NO = 999
REV_AT_EPOCH   = 169
BSTAR          = -.21577E-2
MEAN_MOTION_DOT = -.633164E-2
MEAN_MOTION_DDOT = .12528E-3

CCSDS_OMM_VERS = 2.0
CREATION_DATE  = 
ORIGINATOR     = 

OBJECT_NAME    = STARLINK-36751
OBJECT_ID      = 2026-026J
CENTER_NAME    = EARTH
REF_FRAME      = TEME
TIME_SYSTEM    = UTC
MEAN_ELEMENT_THEORY = SGP/SGP4

EPOCH          = 2026-02-22T05:42:40.669344
MEAN_MOTION    = 15.90169754
ECCENTRICITY   = .0000879
INCLINATION    = 97.2722
RA_OF_ASC_NODE = 107.0784
ARG_OF_PERICENTER = 96.4175
MEAN_ANOMALY   = 263.7198

EPHEMERIS_TYPE = 0
CLASSIFICATION_TYPE = U
NORAD_CAT_ID   = 67729
ELEMENT_SET_NO = 999
REV_AT_EPOCH   = 169
BSTAR          = -.2284E-2
MEAN_MOTION_DOT = -.684576E-2
MEAN_MOTION_DDOT = .14564E-3

